[{"OBJECT_NAME":"EXCITE","OBJECT_ID":"2018-099BP","EPOCH":"2026-03-09T16:45:15.060672","MEAN_MOTION":15.06036758,"ECCENTRICITY":0.0017626,"INCLINATION":97.4107,"RA_OF_ASC_NODE":111.3606,"ARG_OF_PERICENTER":337.4818,"MEAN_ANOMALY":22.5634,"EPHEMERIS_TYPE":0,"CLASSIFICATION_TYPE":"U","NORAD_CAT_ID":43819,"ELEMENT_SET_NO":999,"REV_AT_EPOCH":39677,"BSTAR":0.00019631388,"MEAN_MOTION_DOT":2.813e-5,"MEAN_MOTION_DDOT":0},{"OBJECT_NAME":"STARLINK-4633","OBJECT_ID":"2022-125A","EPOCH":"2026-03-09T17:08:31.007328","MEAN_MOTION":15.08837549,"ECCENTRICITY":0.00011762,"INCLINATION":53.2183,"RA_OF_ASC_NODE":224.1661,"ARG_OF_PERICENTER":90.8127,"MEAN_ANOMALY":269.3,"EPHEMERIS_TYPE":0,"CLASSIFICATION_TYPE":"U","NORAD_CAT_ID":53964,"ELEMENT_SET_NO":999,"REV_AT_EPOCH":18932,"BSTAR":3.21113e-7,"MEAN_MOTION_DOT":-2.83e-6,"MEAN_MOTION_DDOT":0}]
