EXCITE                  
1 43819U 18099BP  26068.69809098  .00002813  00000+0  19631-3 0  9999
2 43819  97.4107 111.3606 0017626 337.4818  22.5634 15.06036758396774
STARLINK-4633           
1 53964U 22125A   26068.71424777 -.00000283  00000+0  32111-6 0  9997
2 53964  53.2183 224.1661 0001176  90.8127 269.3000 15.08837549189328
